PANDORA
1 67395U 80229J   26105.88876157  .00000000  00000-0  37770-3 0    05
2 67395  97.8032 105.5179 0004647 352.2149 299.8658 14.87954564    06
